{"type": "FeatureCollection", "features": [{"type": "Feature", "properties": {"bench_id": "11435810926", "source": "osm"}, "geometry": {"type": "Point", "coordinates": [-73.9983371, 40.7318872]}}, {"type": "Feature", "properties": {"bench_id": "11435810927", "source": "osm"}, "geometry": {"type": "Point", "coordinates": [-73.9982954, 40.7318835]}}, {"type": "Feature", "properties": {"bench_id": "11435810928", "source": "osm"}, "geometry": {"type": "Point", "coordinates": [-73.9982542, 40.7318785]}}, {"type": "Feature", "properties": {"bench_id": "11435810929", "source": "osm"}, "geometry": {"type": "Point", "coordinates": [-73.998227, 40.7318382]}}, {"type": "Feature", "properties": {"bench_id": "11435810930", "source": "osm"}, "geometry": {"type": "Point", "coordinates": [-73.9981789, 40.7318273]}}, {"type": "Feature", "properties": {"bench_id": "11435810931", "source": "osm"}, "geometry": {"type": "Point", "coordinates": [-73.9981377, 40.7318136]}}, {"type": "Feature", "properties": {"bench_id": "11435811010", "source": "osm"}, "geometry": {"type": "Point", "coordinates": [-73.9988694, 40.7316346]}}, {"type": "Feature", "properties": {"bench_id": "11435811011", "source": "osm"}, "geometry": {"type": "Point", "coordinates": [-73.9988507, 40.7316579]}}, {"type": "Feature", "properties": {"bench_id": "11435811013", "source": "osm"}, "geometry": {"type": "Point", "coordinates": [-73.9987834, 40.7316807]}}, {"type": "Feature", "properties": {"bench_id": "11435811014", "source": "osm"}, "geometry": {"type": "Point", "coordinates": [-73.9987647, 40.7317016]}}, {"type": "Feature", "properties": {"bench_id": "11435811015", "source": "osm"}, "geometry": {"type": "Point", "coordinates": [-73.9987469, 40.7317199]}}, {"type": "Feature", "properties": {"bench_id": "11435811020", "source": "osm"}, "geometry": {"type": "Point", "coordinates": [-73.9986692, 40.7318139]}}, {"type": "Feature", "properties": {"bench_id": "11435811021", "source": "osm"}, "geometry": {"type": "Point", "coordinates": [-73.9987011, 40.7317993]}}, {"type": "Feature", "properties": {"bench_id": "11435811022", "source": "osm"}, "geometry": {"type": "Point", "coordinates": [-73.9987279, 40.7317826]}}, {"type": "Feature", "properties": {"bench_id": "11435989729", "source": "osm"}, "geometry": {"type": "Point", "coordinates": [-73.9989501, 40.7309104]}}, {"type": "Feature", "properties": {"bench_id": "11435989730", "source": "osm"}, "geometry": {"type": "Point", "coordinates": [-73.9989758, 40.7309262]}}, {"type": "Feature", "properties": {"bench_id": "11435989739", "source": "osm"}, "geometry": {"type": "Point", "coordinates": [-73.9990239, 40.7310105]}}, {"type": "Feature", "properties": {"bench_id": "11435989740", "source": "osm"}, "geometry": {"type": "Point", "coordinates": [-73.9990011, 40.7309885]}}, {"type": "Feature", "properties": {"bench_id": "11435989741", "source": "osm"}, "geometry": {"type": "Point", "coordinates": [-73.9989743, 40.7309687]}}, {"type": "Feature", "properties": {"bench_id": "11435989742", "source": "osm"}, "geometry": {"type": "Point", "coordinates": [-73.999138, 40.7312193]}}, {"type": "Feature", "properties": {"bench_id": "11435989743", "source": "osm"}, "geometry": {"type": "Point", "coordinates": [-73.9991304, 40.7312464]}}, {"type": "Feature", "properties": {"bench_id": "11435989744", "source": "osm"}, "geometry": {"type": "Point", "coordinates": [-73.9991231, 40.7312697]}}, {"type": "Feature", "properties": {"bench_id": "11435989746", "source": "osm"}, "geometry": {"type": "Point", "coordinates": [-73.9990666, 40.7313182]}}, {"type": "Feature", "properties": {"bench_id": "11435989747", "source": "osm"}, "geometry": {"type": "Point", "coordinates": [-73.9990505, 40.7313488]}}, {"type": "Feature", "properties": {"bench_id": "11435989748", "source": "osm"}, "geometry": {"type": "Point", "coordinates": [-73.9990351, 40.7313741]}}, {"type": "Feature", "properties": {"bench_id": "11435989749", "source": "osm"}, "geometry": {"type": "Point", "coordinates": [-73.9990101, 40.7314667]}}, {"type": "Feature", "properties": {"bench_id": "11435989750", "source": "osm"}, "geometry": {"type": "Point", "coordinates": [-73.9990335, 40.7314397]}}, {"type": "Feature", "properties": {"bench_id": "11435989751", "source": "osm"}, "geometry": {"type": "Point", "coordinates": [-73.9990527, 40.7314156]}}, {"type": "Feature", "properties": {"bench_id": "11435996877", "source": "osm"}, "geometry": {"type": "Point", "coordinates": [-73.9985457, 40.7311826]}}, {"type": "Feature", "properties": {"bench_id": "11435996878", "source": "osm"}, "geometry": {"type": "Point", "coordinates": [-73.9985879, 40.7311783]}}, {"type": "Feature", "properties": {"bench_id": "11435996879", "source": "osm"}, "geometry": {"type": "Point", "coordinates": [-73.998632, 40.7311747]}}, {"type": "Feature", "properties": {"bench_id": "11435996880", "source": "osm"}, "geometry": {"type": "Point", "coordinates": [-73.9987324, 40.7311659]}}, {"type": "Feature", "properties": {"bench_id": "11435996881", "source": "osm"}, "geometry": {"type": "Point", "coordinates": [-73.9987671, 40.7311627]}}, {"type": "Feature", "properties": {"bench_id": "11435996882", "source": "osm"}, "geometry": {"type": "Point", "coordinates": [-73.9988014, 40.7311602]}}, {"type": "Feature", "properties": {"bench_id": "11435996884", "source": "osm"}, "geometry": {"type": "Point", "coordinates": [-73.9989785, 40.7311445]}}, {"type": "Feature", "properties": {"bench_id": "11435996885", "source": "osm"}, "geometry": {"type": "Point", "coordinates": [-73.9989442, 40.731147]}}, {"type": "Feature", "properties": {"bench_id": "11435996886", "source": "osm"}, "geometry": {"type": "Point", "coordinates": [-73.9989095, 40.7311502]}}, {"type": "Feature", "properties": {"bench_id": "11435996911", "source": "osm"}, "geometry": {"type": "Point", "coordinates": [-73.998748, 40.731428]}}, {"type": "Feature", "properties": {"bench_id": "11435996912", "source": "osm"}, "geometry": {"type": "Point", "coordinates": [-73.99878, 40.731443]}}, {"type": "Feature", "properties": {"bench_id": "11435996913", "source": "osm"}, "geometry": {"type": "Point", "coordinates": [-73.9988271, 40.7314673]}}, {"type": "Feature", "properties": {"bench_id": "11435996914", "source": "osm"}, "geometry": {"type": "Point", "coordinates": [-73.9988587, 40.7314827]}}, {"type": "Feature", "properties": {"bench_id": "11435996915", "source": "osm"}, "geometry": {"type": "Point", "coordinates": [-73.9988258, 40.7315189]}}, {"type": "Feature", "properties": {"bench_id": "11435996916", "source": "osm"}, "geometry": {"type": "Point", "coordinates": [-73.9987943, 40.7315035]}}, {"type": "Feature", "properties": {"bench_id": "11435996917", "source": "osm"}, "geometry": {"type": "Point", "coordinates": [-73.9987471, 40.7314792]}}, {"type": "Feature", "properties": {"bench_id": "11435996918", "source": "osm"}, "geometry": {"type": "Point", "coordinates": [-73.9987151, 40.7314642]}}, {"type": "Feature", "properties": {"bench_id": "11435996919", "source": "osm"}, "geometry": {"type": "Point", "coordinates": [-73.9987086, 40.7313958]}}, {"type": "Feature", "properties": {"bench_id": "11435996920", "source": "osm"}, "geometry": {"type": "Point", "coordinates": [-73.9986682, 40.7313604]}}, {"type": "Feature", "properties": {"bench_id": "11435996921", "source": "osm"}, "geometry": {"type": "Point", "coordinates": [-73.998693, 40.7313764]}}, {"type": "Feature", "properties": {"bench_id": "11435996922", "source": "osm"}, "geometry": {"type": "Point", "coordinates": [-73.9986367, 40.7313511]}}, {"type": "Feature", "properties": {"bench_id": "11435996923", "source": "osm"}, "geometry": {"type": "Point", "coordinates": [-73.9986037, 40.7313495]}}, {"type": "Feature", "properties": {"bench_id": "11435996924", "source": "osm"}, "geometry": {"type": "Point", "coordinates": [-73.9985666, 40.7314048]}}, {"type": "Feature", "properties": {"bench_id": "11435996925", "source": "osm"}, "geometry": {"type": "Point", "coordinates": [-73.9985792, 40.7314247]}}, {"type": "Feature", "properties": {"bench_id": "11435996926", "source": "osm"}, "geometry": {"type": "Point", "coordinates": [-73.9986033, 40.7314436]}}, {"type": "Feature", "properties": {"bench_id": "11435996927", "source": "osm"}, "geometry": {"type": "Point", "coordinates": [-73.9986322, 40.7314537]}}, {"type": "Feature", "properties": {"bench_id": "11435996928", "source": "osm"}, "geometry": {"type": "Point", "coordinates": [-73.9986615, 40.7314562]}}, {"type": "Feature", "properties": {"bench_id": "11435996929", "source": "osm"}, "geometry": {"type": "Point", "coordinates": [-73.9984917, 40.7313067]}}, {"type": "Feature", "properties": {"bench_id": "11435996930", "source": "osm"}, "geometry": {"type": "Point", "coordinates": [-73.9985188, 40.7313198]}}, {"type": "Feature", "properties": {"bench_id": "11435996931", "source": "osm"}, "geometry": {"type": "Point", "coordinates": [-73.9985472, 40.7313332]}}, {"type": "Feature", "properties": {"bench_id": "11435996932", "source": "osm"}, "geometry": {"type": "Point", "coordinates": [-73.9985728, 40.7313464]}}, {"type": "Feature", "properties": {"bench_id": "11435996933", "source": "osm"}, "geometry": {"type": "Point", "coordinates": [-73.9984818, 40.7313519]}}, {"type": "Feature", "properties": {"bench_id": "11435996934", "source": "osm"}, "geometry": {"type": "Point", "coordinates": [-73.9985358, 40.7313785]}}, {"type": "Feature", "properties": {"bench_id": "11435996935", "source": "osm"}, "geometry": {"type": "Point", "coordinates": [-73.9985102, 40.7313653]}}, {"type": "Feature", "properties": {"bench_id": "11435996936", "source": "osm"}, "geometry": {"type": "Point", "coordinates": [-73.9984547, 40.7313414]}}, {"type": "Feature", "properties": {"bench_id": "11435996937", "source": "osm"}, "geometry": {"type": "Point", "coordinates": [-73.9984016, 40.731263]}}, {"type": "Feature", "properties": {"bench_id": "11435996938", "source": "osm"}, "geometry": {"type": "Point", "coordinates": [-73.9984556, 40.7312896]}}, {"type": "Feature", "properties": {"bench_id": "11435996939", "source": "osm"}, "geometry": {"type": "Point", "coordinates": [-73.99843, 40.7312764]}}, {"type": "Feature", "properties": {"bench_id": "11435996940", "source": "osm"}, "geometry": {"type": "Point", "coordinates": [-73.9983745, 40.7312499]}}, {"type": "Feature", "properties": {"bench_id": "11435996941", "source": "osm"}, "geometry": {"type": "Point", "coordinates": [-73.9983729, 40.7313026]}}, {"type": "Feature", "properties": {"bench_id": "11435996942", "source": "osm"}, "geometry": {"type": "Point", "coordinates": [-73.9984269, 40.7313286]}}, {"type": "Feature", "properties": {"bench_id": "11435996943", "source": "osm"}, "geometry": {"type": "Point", "coordinates": [-73.9984013, 40.731316]}}, {"type": "Feature", "properties": {"bench_id": "11435996944", "source": "osm"}, "geometry": {"type": "Point", "coordinates": [-73.9983458, 40.7312896]}}, {"type": "Feature", "properties": {"bench_id": "11435996959", "source": "osm"}, "geometry": {"type": "Point", "coordinates": [-73.9983272, 40.7313086]}}, {"type": "Feature", "properties": {"bench_id": "11435996960", "source": "osm"}, "geometry": {"type": "Point", "coordinates": [-73.9983391, 40.7313408]}}, {"type": "Feature", "properties": {"bench_id": "11435996961", "source": "osm"}, "geometry": {"type": "Point", "coordinates": [-73.9983477, 40.7313687]}}, {"type": "Feature", "properties": {"bench_id": "11435996962", "source": "osm"}, "geometry": {"type": "Point", "coordinates": [-73.9983578, 40.7313966]}}, {"type": "Feature", "properties": {"bench_id": "11435996969", "source": "osm"}, "geometry": {"type": "Point", "coordinates": [-73.9984452, 40.7316386]}}, {"type": "Feature", "properties": {"bench_id": "11435996970", "source": "osm"}, "geometry": {"type": "Point", "coordinates": [-73.998433, 40.7316095]}}, {"type": "Feature", "properties": {"bench_id": "11435996971", "source": "osm"}, "geometry": {"type": "Point", "coordinates": [-73.9984196, 40.7315783]}}, {"type": "Feature", "properties": {"bench_id": "11435996972", "source": "osm"}, "geometry": {"type": "Point", "coordinates": [-73.9984103, 40.7315461]}}, {"type": "Feature", "properties": {"bench_id": "11435996973", "source": "osm"}, "geometry": {"type": "Point", "coordinates": [-73.9984921, 40.7317826]}}, {"type": "Feature", "properties": {"bench_id": "11435996974", "source": "osm"}, "geometry": {"type": "Point", "coordinates": [-73.9984822, 40.7317542]}}, {"type": "Feature", "properties": {"bench_id": "11435996975", "source": "osm"}, "geometry": {"type": "Point", "coordinates": [-73.9984715, 40.7317244]}}, {"type": "Feature", "properties": {"bench_id": "11435996976", "source": "osm"}, "geometry": {"type": "Point", "coordinates": [-73.9984572, 40.7316856]}}, {"type": "Feature", "properties": {"bench_id": "11435997020", "source": "osm"}, "geometry": {"type": "Point", "coordinates": [-73.9983451, 40.7314967]}}, {"type": "Feature", "properties": {"bench_id": "11435997021", "source": "osm"}, "geometry": {"type": "Point", "coordinates": [-73.9983361, 40.7314697]}}, {"type": "Feature", "properties": {"bench_id": "11435997022", "source": "osm"}, "geometry": {"type": "Point", "coordinates": [-73.9983254, 40.7314419]}}, {"type": "Feature", "properties": {"bench_id": "11435997023", "source": "osm"}, "geometry": {"type": "Point", "coordinates": [-73.9983168, 40.7314178]}}, {"type": "Feature", "properties": {"bench_id": "11435997024", "source": "osm"}, "geometry": {"type": "Point", "coordinates": [-73.9983073, 40.7313947]}}, {"type": "Feature", "properties": {"bench_id": "11435997046", "source": "osm"}, "geometry": {"type": "Point", "coordinates": [-73.9980442, 40.731192]}}, {"type": "Feature", "properties": {"bench_id": "11435997047", "source": "osm"}, "geometry": {"type": "Point", "coordinates": [-73.9979205, 40.7311297]}}, {"type": "Feature", "properties": {"bench_id": "11435997048", "source": "osm"}, "geometry": {"type": "Point", "coordinates": [-73.9980154, 40.7311773]}}, {"type": "Feature", "properties": {"bench_id": "11435997049", "source": "osm"}, "geometry": {"type": "Point", "coordinates": [-73.9979805, 40.7311599]}}, {"type": "Feature", "properties": {"bench_id": "11435997050", "source": "osm"}, "geometry": {"type": "Point", "coordinates": [-73.9979503, 40.7311444]}}, {"type": "Feature", "properties": {"bench_id": "11435997051", "source": "osm"}, "geometry": {"type": "Point", "coordinates": [-73.9981071, 40.7310662]}}, {"type": "Feature", "properties": {"bench_id": "11435997052", "source": "osm"}, "geometry": {"type": "Point", "coordinates": [-73.9981357, 40.7310811]}}, {"type": "Feature", "properties": {"bench_id": "11435997053", "source": "osm"}, "geometry": {"type": "Point", "coordinates": [-73.9980724, 40.7310486]}}, {"type": "Feature", "properties": {"bench_id": "11435997054", "source": "osm"}, "geometry": {"type": "Point", "coordinates": [-73.9980424, 40.7310329]}}, {"type": "Feature", "properties": {"bench_id": "11435997055", "source": "osm"}, "geometry": {"type": "Point", "coordinates": [-73.9980127, 40.731018]}}, {"type": "Feature", "properties": {"bench_id": "11435997058", "source": "osm"}, "geometry": {"type": "Point", "coordinates": [-73.9982965, 40.7310978]}}, {"type": "Feature", "properties": {"bench_id": "11435997059", "source": "osm"}, "geometry": {"type": "Point", "coordinates": [-73.9983547, 40.731142]}}, {"type": "Feature", "properties": {"bench_id": "11435997060", "source": "osm"}, "geometry": {"type": "Point", "coordinates": [-73.9982143, 40.7310842]}}, {"type": "Feature", "properties": {"bench_id": "11435997061", "source": "osm"}, "geometry": {"type": "Point", "coordinates": [-73.9982558, 40.7310864]}}, {"type": "Feature", "properties": {"bench_id": "11435997062", "source": "osm"}, "geometry": {"type": "Point", "coordinates": [-73.9983296, 40.7311166]}}, {"type": "Feature", "properties": {"bench_id": "11435997063", "source": "osm"}, "geometry": {"type": "Point", "coordinates": [-73.9982501, 40.7313112]}}, {"type": "Feature", "properties": {"bench_id": "11435997064", "source": "osm"}, "geometry": {"type": "Point", "coordinates": [-73.9982169, 40.7313125]}}, {"type": "Feature", "properties": {"bench_id": "11435997065", "source": "osm"}, "geometry": {"type": "Point", "coordinates": [-73.9981817, 40.7313077]}}, {"type": "Feature", "properties": {"bench_id": "11435997066", "source": "osm"}, "geometry": {"type": "Point", "coordinates": [-73.9981033, 40.7312675]}}, {"type": "Feature", "properties": {"bench_id": "11435997067", "source": "osm"}, "geometry": {"type": "Point", "coordinates": [-73.9980859, 40.7312453]}}, {"type": "Feature", "properties": {"bench_id": "11435997068", "source": "osm"}, "geometry": {"type": "Point", "coordinates": [-73.9980788, 40.7312219]}}, {"type": "Feature", "properties": {"bench_id": "11435997095", "source": "osm"}, "geometry": {"type": "Point", "coordinates": [-73.9980689, 40.7318167]}}, {"type": "Feature", "properties": {"bench_id": "11435997096", "source": "osm"}, "geometry": {"type": "Point", "coordinates": [-73.9980327, 40.7317995]}}, {"type": "Feature", "properties": {"bench_id": "11435997097", "source": "osm"}, "geometry": {"type": "Point", "coordinates": [-73.9980043, 40.7317839]}}, {"type": "Feature", "properties": {"bench_id": "11435997102", "source": "osm"}, "geometry": {"type": "Point", "coordinates": [-73.9979978, 40.7317442]}}, {"type": "Feature", "properties": {"bench_id": "11435997103", "source": "osm"}, "geometry": {"type": "Point", "coordinates": [-73.9979694, 40.7317286]}}, {"type": "Feature", "properties": {"bench_id": "11435997104", "source": "osm"}, "geometry": {"type": "Point", "coordinates": [-73.9979379, 40.7317066]}}, {"type": "Feature", "properties": {"bench_id": "11435997149", "source": "osm"}, "geometry": {"type": "Point", "coordinates": [-73.9978124, 40.7316454]}}, {"type": "Feature", "properties": {"bench_id": "11435997150", "source": "osm"}, "geometry": {"type": "Point", "coordinates": [-73.9977871, 40.7316181]}}, {"type": "Feature", "properties": {"bench_id": "11435997151", "source": "osm"}, "geometry": {"type": "Point", "coordinates": [-73.997764, 40.731588]}}, {"type": "Feature", "properties": {"bench_id": "11435997241", "source": "osm"}, "geometry": {"type": "Point", "coordinates": [-73.9977076, 40.7314689]}}, {"type": "Feature", "properties": {"bench_id": "11435997242", "source": "osm"}, "geometry": {"type": "Point", "coordinates": [-73.9976747, 40.731451]}}, {"type": "Feature", "properties": {"bench_id": "11435997243", "source": "osm"}, "geometry": {"type": "Point", "coordinates": [-73.9976432, 40.7314352]}}, {"type": "Feature", "properties": {"bench_id": "11435997244", "source": "osm"}, "geometry": {"type": "Point", "coordinates": [-73.9976066, 40.7314208]}}, {"type": "Feature", "properties": {"bench_id": "11435997245", "source": "osm"}, "geometry": {"type": "Point", "coordinates": [-73.9975704, 40.7314074]}}, {"type": "Feature", "properties": {"bench_id": "11435997250", "source": "osm"}, "geometry": {"type": "Point", "coordinates": [-73.9973911, 40.7313962]}}, {"type": "Feature", "properties": {"bench_id": "11435997251", "source": "osm"}, "geometry": {"type": "Point", "coordinates": [-73.9974323, 40.7314074]}}, {"type": "Feature", "properties": {"bench_id": "11435997252", "source": "osm"}, "geometry": {"type": "Point", "coordinates": [-73.9974666, 40.7314169]}}, {"type": "Feature", "properties": {"bench_id": "11435997431", "source": "osm"}, "geometry": {"type": "Point", "coordinates": [-73.9975232, 40.7311198]}}, {"type": "Feature", "properties": {"bench_id": "11435997432", "source": "osm"}, "geometry": {"type": "Point", "coordinates": [-73.9974869, 40.7311232]}}, {"type": "Feature", "properties": {"bench_id": "11435997433", "source": "osm"}, "geometry": {"type": "Point", "coordinates": [-73.9974532, 40.7311243]}}, {"type": "Feature", "properties": {"bench_id": "11435997434", "source": "osm"}, "geometry": {"type": "Point", "coordinates": [-73.9974236, 40.7311238]}}, {"type": "Feature", "properties": {"bench_id": "11435997435", "source": "osm"}, "geometry": {"type": "Point", "coordinates": [-73.9977032, 40.7310581]}}, {"type": "Feature", "properties": {"bench_id": "11435997436", "source": "osm"}, "geometry": {"type": "Point", "coordinates": [-73.9976713, 40.7310767]}}, {"type": "Feature", "properties": {"bench_id": "11435997437", "source": "osm"}, "geometry": {"type": "Point", "coordinates": [-73.9976448, 40.7310882]}}, {"type": "Feature", "properties": {"bench_id": "11435997438", "source": "osm"}, "geometry": {"type": "Point", "coordinates": [-73.9976166, 40.731098]}}, {"type": "Feature", "properties": {"bench_id": "11435997439", "source": "osm"}, "geometry": {"type": "Point", "coordinates": [-73.9975854, 40.7311073]}}, {"type": "Feature", "properties": {"bench_id": "11435997440", "source": "osm"}, "geometry": {"type": "Point", "coordinates": [-73.9978766, 40.731108]}}, {"type": "Feature", "properties": {"bench_id": "11435997441", "source": "osm"}, "geometry": {"type": "Point", "coordinates": [-73.9978478, 40.7310933]}}, {"type": "Feature", "properties": {"bench_id": "11435997442", "source": "osm"}, "geometry": {"type": "Point", "coordinates": [-73.997813, 40.7310759]}}, {"type": "Feature", "properties": {"bench_id": "11435997443", "source": "osm"}, "geometry": {"type": "Point", "coordinates": [-73.9977828, 40.7310603]}}, {"type": "Feature", "properties": {"bench_id": "11435997444", "source": "osm"}, "geometry": {"type": "Point", "coordinates": [-73.9977529, 40.7310456]}}, {"type": "Feature", "properties": {"bench_id": "11435997445", "source": "osm"}, "geometry": {"type": "Point", "coordinates": [-73.9979664, 40.7309977]}}, {"type": "Feature", "properties": {"bench_id": "11435997446", "source": "osm"}, "geometry": {"type": "Point", "coordinates": [-73.9979373, 40.7309834]}}, {"type": "Feature", "properties": {"bench_id": "11435997447", "source": "osm"}, "geometry": {"type": "Point", "coordinates": [-73.997902, 40.7309664]}}, {"type": "Feature", "properties": {"bench_id": "11435997448", "source": "osm"}, "geometry": {"type": "Point", "coordinates": [-73.9978714, 40.7309514]}}, {"type": "Feature", "properties": {"bench_id": "11435997449", "source": "osm"}, "geometry": {"type": "Point", "coordinates": [-73.9978412, 40.7309371]}}, {"type": "Feature", "properties": {"bench_id": "11436260396", "source": "osm"}, "geometry": {"type": "Point", "coordinates": [-73.9970945, 40.7309563]}}, {"type": "Feature", "properties": {"bench_id": "11436260397", "source": "osm"}, "geometry": {"type": "Point", "coordinates": [-73.997079, 40.7309301]}}, {"type": "Feature", "properties": {"bench_id": "11436260398", "source": "osm"}, "geometry": {"type": "Point", "coordinates": [-73.9970679, 40.7309046]}}, {"type": "Feature", "properties": {"bench_id": "11436260399", "source": "osm"}, "geometry": {"type": "Point", "coordinates": [-73.9970616, 40.730882]}}, {"type": "Feature", "properties": {"bench_id": "11436266180", "source": "osm"}, "geometry": {"type": "Point", "coordinates": [-73.9978334, 40.7309129]}}, {"type": "Feature", "properties": {"bench_id": "11436266181", "source": "osm"}, "geometry": {"type": "Point", "coordinates": [-73.9978425, 40.730884]}}, {"type": "Feature", "properties": {"bench_id": "11436266182", "source": "osm"}, "geometry": {"type": "Point", "coordinates": [-73.9978465, 40.7308539]}}, {"type": "Feature", "properties": {"bench_id": "11436266183", "source": "osm"}, "geometry": {"type": "Point", "coordinates": [-73.9978501, 40.7308268]}}, {"type": "Feature", "properties": {"bench_id": "11436266184", "source": "osm"}, "geometry": {"type": "Point", "coordinates": [-73.9978497, 40.7307976]}}, {"type": "Feature", "properties": {"bench_id": "11436266185", "source": "osm"}, "geometry": {"type": "Point", "coordinates": [-73.9978437, 40.7307678]}}, {"type": "Feature", "properties": {"bench_id": "11436266188", "source": "osm"}, "geometry": {"type": "Point", "coordinates": [-73.9978326, 40.7307304]}}, {"type": "Feature", "properties": {"bench_id": "11436266189", "source": "osm"}, "geometry": {"type": "Point", "coordinates": [-73.9978199, 40.7307018]}}, {"type": "Feature", "properties": {"bench_id": "11436266190", "source": "osm"}, "geometry": {"type": "Point", "coordinates": [-73.9978028, 40.7306762]}}, {"type": "Feature", "properties": {"bench_id": "11436266191", "source": "osm"}, "geometry": {"type": "Point", "coordinates": [-73.9977821, 40.7306542]}}, {"type": "Feature", "properties": {"bench_id": "11436266192", "source": "osm"}, "geometry": {"type": "Point", "coordinates": [-73.9977579, 40.7306302]}}, {"type": "Feature", "properties": {"bench_id": "11436266197", "source": "osm"}, "geometry": {"type": "Point", "coordinates": [-73.9975573, 40.7305297]}}, {"type": "Feature", "properties": {"bench_id": "11436266198", "source": "osm"}, "geometry": {"type": "Point", "coordinates": [-73.997525, 40.7305253]}}, {"type": "Feature", "properties": {"bench_id": "11436266199", "source": "osm"}, "geometry": {"type": "Point", "coordinates": [-73.9974919, 40.730522]}}, {"type": "Feature", "properties": {"bench_id": "11436266200", "source": "osm"}, "geometry": {"type": "Point", "coordinates": [-73.9974586, 40.7305207]}}, {"type": "Feature", "properties": {"bench_id": "11436266201", "source": "osm"}, "geometry": {"type": "Point", "coordinates": [-73.9974269, 40.7305212]}}, {"type": "Feature", "properties": {"bench_id": "11436266202", "source": "osm"}, "geometry": {"type": "Point", "coordinates": [-73.9973956, 40.7305233]}}, {"type": "Feature", "properties": {"bench_id": "11436266203", "source": "osm"}, "geometry": {"type": "Point", "coordinates": [-73.9973325, 40.7305323]}}, {"type": "Feature", "properties": {"bench_id": "11436266204", "source": "osm"}, "geometry": {"type": "Point", "coordinates": [-73.9973016, 40.7305408]}}, {"type": "Feature", "properties": {"bench_id": "11436266205", "source": "osm"}, "geometry": {"type": "Point", "coordinates": [-73.9972719, 40.7305496]}}, {"type": "Feature", "properties": {"bench_id": "11436266283", "source": "osm"}, "geometry": {"type": "Point", "coordinates": [-73.9970704, 40.7307416]}}, {"type": "Feature", "properties": {"bench_id": "11436266284", "source": "osm"}, "geometry": {"type": "Point", "coordinates": [-73.9970601, 40.7307689]}}, {"type": "Feature", "properties": {"bench_id": "11436266285", "source": "osm"}, "geometry": {"type": "Point", "coordinates": [-73.9970555, 40.7307959]}}, {"type": "Feature", "properties": {"bench_id": "11436266286", "source": "osm"}, "geometry": {"type": "Point", "coordinates": [-73.9970551, 40.7308225]}}, {"type": "Feature", "properties": {"bench_id": "11436266287", "source": "osm"}, "geometry": {"type": "Point", "coordinates": [-73.9970578, 40.7308496]}}, {"type": "Feature", "properties": {"bench_id": "11436266315", "source": "osm"}, "geometry": {"type": "Point", "coordinates": [-73.9977149, 40.7305693]}}, {"type": "Feature", "properties": {"bench_id": "11436266316", "source": "osm"}, "geometry": {"type": "Point", "coordinates": [-73.9977375, 40.730548]}}, {"type": "Feature", "properties": {"bench_id": "11436266317", "source": "osm"}, "geometry": {"type": "Point", "coordinates": [-73.9977583, 40.7305346]}}, {"type": "Feature", "properties": {"bench_id": "11436266320", "source": "osm"}, "geometry": {"type": "Point", "coordinates": [-73.997871, 40.7304912]}}, {"type": "Feature", "properties": {"bench_id": "11436266321", "source": "osm"}, "geometry": {"type": "Point", "coordinates": [-73.9978367, 40.7304991]}}, {"type": "Feature", "properties": {"bench_id": "11436266322", "source": "osm"}, "geometry": {"type": "Point", "coordinates": [-73.9978041, 40.7305104]}}, {"type": "Feature", "properties": {"bench_id": "11436266331", "source": "osm"}, "geometry": {"type": "Point", "coordinates": [-73.9981531, 40.7305697]}}, {"type": "Feature", "properties": {"bench_id": "11436266332", "source": "osm"}, "geometry": {"type": "Point", "coordinates": [-73.9981342, 40.7305467]}}, {"type": "Feature", "properties": {"bench_id": "11436266333", "source": "osm"}, "geometry": {"type": "Point", "coordinates": [-73.998116, 40.730525]}}, {"type": "Feature", "properties": {"bench_id": "11436266340", "source": "osm"}, "geometry": {"type": "Point", "coordinates": [-73.9981379, 40.7306526]}}, {"type": "Feature", "properties": {"bench_id": "11436266341", "source": "osm"}, "geometry": {"type": "Point", "coordinates": [-73.9981317, 40.7306265]}}, {"type": "Feature", "properties": {"bench_id": "11436266342", "source": "osm"}, "geometry": {"type": "Point", "coordinates": [-73.9981215, 40.7305937]}}, {"type": "Feature", "properties": {"bench_id": "11436266356", "source": "osm"}, "geometry": {"type": "Point", "coordinates": [-73.9986252, 40.7308207]}}, {"type": "Feature", "properties": {"bench_id": "11436266357", "source": "osm"}, "geometry": {"type": "Point", "coordinates": [-73.9986609, 40.7308204]}}, {"type": "Feature", "properties": {"bench_id": "11436266358", "source": "osm"}, "geometry": {"type": "Point", "coordinates": [-73.9986963, 40.7308213]}}, {"type": "Feature", "properties": {"bench_id": "11436266359", "source": "osm"}, "geometry": {"type": "Point", "coordinates": [-73.9987321, 40.7308225]}}, {"type": "Feature", "properties": {"bench_id": "11436266520", "source": "osm"}, "geometry": {"type": "Point", "coordinates": [-73.9986835, 40.7311369]}}, {"type": "Feature", "properties": {"bench_id": "11436266521", "source": "osm"}, "geometry": {"type": "Point", "coordinates": [-73.9986503, 40.73114]}}, {"type": "Feature", "properties": {"bench_id": "11436266522", "source": "osm"}, "geometry": {"type": "Point", "coordinates": [-73.9986167, 40.7311427]}}, {"type": "Feature", "properties": {"bench_id": "11436266524", "source": "osm"}, "geometry": {"type": "Point", "coordinates": [-73.9988917, 40.7311164]}}, {"type": "Feature", "properties": {"bench_id": "11436266525", "source": "osm"}, "geometry": {"type": "Point", "coordinates": [-73.998857, 40.7311192]}}, {"type": "Feature", "properties": {"bench_id": "11436266526", "source": "osm"}, "geometry": {"type": "Point", "coordinates": [-73.9988238, 40.7311235]}}, {"type": "Feature", "properties": {"bench_id": "11436266527", "source": "osm"}, "geometry": {"type": "Point", "coordinates": [-73.9983966, 40.7311631]}}, {"type": "Feature", "properties": {"bench_id": "11436266528", "source": "osm"}, "geometry": {"type": "Point", "coordinates": [-73.9984319, 40.7311594]}}, {"type": "Feature", "properties": {"bench_id": "11436266529", "source": "osm"}, "geometry": {"type": "Point", "coordinates": [-73.998465, 40.731156]}}, {"type": "Feature", "properties": {"bench_id": "11436266602", "source": "osm"}, "geometry": {"type": "Point", "coordinates": [-73.9971992, 40.730483]}}, {"type": "Feature", "properties": {"bench_id": "11436266603", "source": "osm"}, "geometry": {"type": "Point", "coordinates": [-73.9971898, 40.7304599]}}, {"type": "Feature", "properties": {"bench_id": "11436266644", "source": "osm"}, "geometry": {"type": "Point", "coordinates": [-73.9971966, 40.7302376]}}, {"type": "Feature", "properties": {"bench_id": "11436266645", "source": "osm"}, "geometry": {"type": "Point", "coordinates": [-73.9971868, 40.7302638]}}, {"type": "Feature", "properties": {"bench_id": "11436266646", "source": "osm"}, "geometry": {"type": "Point", "coordinates": [-73.9971789, 40.7302899]}}, {"type": "Feature", "properties": {"bench_id": "11436266650", "source": "osm"}, "geometry": {"type": "Point", "coordinates": [-73.997467, 40.7302526]}}, {"type": "Feature", "properties": {"bench_id": "11436266651", "source": "osm"}, "geometry": {"type": "Point", "coordinates": [-73.9974934, 40.7302648]}}, {"type": "Feature", "properties": {"bench_id": "11436266652", "source": "osm"}, "geometry": {"type": "Point", "coordinates": [-73.9975463, 40.7302818]}}, {"type": "Feature", "properties": {"bench_id": "11436266653", "source": "osm"}, "geometry": {"type": "Point", "coordinates": [-73.9975754, 40.7302937]}}, {"type": "Feature", "properties": {"bench_id": "11436266679", "source": "osm"}, "geometry": {"type": "Point", "coordinates": [-73.9976923, 40.7305066]}}, {"type": "Feature", "properties": {"bench_id": "11436266680", "source": "osm"}, "geometry": {"type": "Point", "coordinates": [-73.9976678, 40.7305244]}}, {"type": "Feature", "properties": {"bench_id": "11436266681", "source": "osm"}, "geometry": {"type": "Point", "coordinates": [-73.9976498, 40.730542]}}, {"type": "Feature", "properties": {"bench_id": "11436266682", "source": "osm"}, "geometry": {"type": "Point", "coordinates": [-73.997733, 40.7304799]}}, {"type": "Feature", "properties": {"bench_id": "11436266683", "source": "osm"}, "geometry": {"type": "Point", "coordinates": [-73.9977607, 40.7304657]}}, {"type": "Feature", "properties": {"bench_id": "11436266684", "source": "osm"}, "geometry": {"type": "Point", "coordinates": [-73.99779, 40.7304555]}}, {"type": "Feature", "properties": {"bench_id": "11436266736", "source": "osm"}, "geometry": {"type": "Point", "coordinates": [-73.9974565, 40.7301426]}}, {"type": "Feature", "properties": {"bench_id": "11436266737", "source": "osm"}, "geometry": {"type": "Point", "coordinates": [-73.997455, 40.7301755]}}, {"type": "Feature", "properties": {"bench_id": "11436266739", "source": "osm"}, "geometry": {"type": "Point", "coordinates": [-73.997609, 40.7302427]}}, {"type": "Feature", "properties": {"bench_id": "11436266740", "source": "osm"}, "geometry": {"type": "Point", "coordinates": [-73.9976371, 40.7302337]}}, {"type": "Feature", "properties": {"bench_id": "11436266741", "source": "osm"}, "geometry": {"type": "Point", "coordinates": [-73.9976419, 40.7302766]}}, {"type": "Feature", "properties": {"bench_id": "11436266742", "source": "osm"}, "geometry": {"type": "Point", "coordinates": [-73.9976829, 40.7302896]}}, {"type": "Feature", "properties": {"bench_id": "11436266743", "source": "osm"}, "geometry": {"type": "Point", "coordinates": [-73.9978631, 40.7303579]}}, {"type": "Feature", "properties": {"bench_id": "11436266744", "source": "osm"}, "geometry": {"type": "Point", "coordinates": [-73.9978297, 40.7303471]}}, {"type": "Feature", "properties": {"bench_id": "11436266745", "source": "osm"}, "geometry": {"type": "Point", "coordinates": [-73.9977988, 40.7303337]}}, {"type": "Feature", "properties": {"bench_id": "11436266752", "source": "osm"}, "geometry": {"type": "Point", "coordinates": [-73.9973435, 40.7300949]}}, {"type": "Feature", "properties": {"bench_id": "11436266753", "source": "osm"}, "geometry": {"type": "Point", "coordinates": [-73.9973616, 40.7301184]}}, {"type": "Feature", "properties": {"bench_id": "11436266754", "source": "osm"}, "geometry": {"type": "Point", "coordinates": [-73.9973812, 40.7301394]}}, {"type": "Feature", "properties": {"bench_id": "11436266824", "source": "osm"}, "geometry": {"type": "Point", "coordinates": [-73.9971599, 40.7305987]}}, {"type": "Feature", "properties": {"bench_id": "11436266825", "source": "osm"}, "geometry": {"type": "Point", "coordinates": [-73.9971333, 40.7305861]}}, {"type": "Feature", "properties": {"bench_id": "11436266826", "source": "osm"}, "geometry": {"type": "Point", "coordinates": [-73.9971039, 40.7305739]}}, {"type": "Feature", "properties": {"bench_id": "11436266827", "source": "osm"}, "geometry": {"type": "Point", "coordinates": [-73.9970764, 40.7305613]}}, {"type": "Feature", "properties": {"bench_id": "11436266828", "source": "osm"}, "geometry": {"type": "Point", "coordinates": [-73.9970527, 40.7305509]}}, {"type": "Feature", "properties": {"bench_id": "11436266830", "source": "osm"}, "geometry": {"type": "Point", "coordinates": [-73.9970313, 40.7305175]}}, {"type": "Feature", "properties": {"bench_id": "11436266831", "source": "osm"}, "geometry": {"type": "Point", "coordinates": [-73.9970185, 40.7304937]}}, {"type": "Feature", "properties": {"bench_id": "11436266863", "source": "osm"}, "geometry": {"type": "Point", "coordinates": [-73.9967984, 40.7303052]}}, {"type": "Feature", "properties": {"bench_id": "11436266864", "source": "osm"}, "geometry": {"type": "Point", "coordinates": [-73.9967917, 40.7302793]}}, {"type": "Feature", "properties": {"bench_id": "11436266866", "source": "osm"}, "geometry": {"type": "Point", "coordinates": [-73.9967423, 40.7301108]}}, {"type": "Feature", "properties": {"bench_id": "11436266867", "source": "osm"}, "geometry": {"type": "Point", "coordinates": [-73.9967507, 40.7301379]}}, {"type": "Feature", "properties": {"bench_id": "11436266917", "source": "osm"}, "geometry": {"type": "Point", "coordinates": [-73.9971904, 40.7301467]}}, {"type": "Feature", "properties": {"bench_id": "11436266918", "source": "osm"}, "geometry": {"type": "Point", "coordinates": [-73.9971721, 40.7301744]}}, {"type": "Feature", "properties": {"bench_id": "11436266919", "source": "osm"}, "geometry": {"type": "Point", "coordinates": [-73.9971588, 40.7302003]}}, {"type": "Feature", "properties": {"bench_id": "11436266921", "source": "osm"}, "geometry": {"type": "Point", "coordinates": [-73.9971249, 40.730385]}}, {"type": "Feature", "properties": {"bench_id": "11436266922", "source": "osm"}, "geometry": {"type": "Point", "coordinates": [-73.9971241, 40.7303521]}}, {"type": "Feature", "properties": {"bench_id": "11436266923", "source": "osm"}, "geometry": {"type": "Point", "coordinates": [-73.9971261, 40.7303225]}}, {"type": "Feature", "properties": {"bench_id": "11436266924", "source": "osm"}, "geometry": {"type": "Point", "coordinates": [-73.9971926, 40.7305676]}}, {"type": "Feature", "properties": {"bench_id": "11436266925", "source": "osm"}, "geometry": {"type": "Point", "coordinates": [-73.9971765, 40.7305478]}}, {"type": "Feature", "properties": {"bench_id": "11436266926", "source": "osm"}, "geometry": {"type": "Point", "coordinates": [-73.9971644, 40.7305234]}}, {"type": "Feature", "properties": {"bench_id": "11436266929", "source": "osm"}, "geometry": {"type": "Point", "coordinates": [-73.9970276, 40.729991]}}, {"type": "Feature", "properties": {"bench_id": "11436266930", "source": "osm"}, "geometry": {"type": "Point", "coordinates": [-73.9969924, 40.7299817]}}, {"type": "Feature", "properties": {"bench_id": "11436266931", "source": "osm"}, "geometry": {"type": "Point", "coordinates": [-73.9969599, 40.7299778]}}, {"type": "Feature", "properties": {"bench_id": "11436266939", "source": "osm"}, "geometry": {"type": "Point", "coordinates": [-73.9971989, 40.7300135]}}, {"type": "Feature", "properties": {"bench_id": "11436266940", "source": "osm"}, "geometry": {"type": "Point", "coordinates": [-73.9971622, 40.7299989]}}, {"type": "Feature", "properties": {"bench_id": "11436266941", "source": "osm"}, "geometry": {"type": "Point", "coordinates": [-73.9971218, 40.7299868]}}, {"type": "Feature", "properties": {"bench_id": "11436267002", "source": "osm"}, "geometry": {"type": "Point", "coordinates": [-73.9969366, 40.7299236]}}, {"type": "Feature", "properties": {"bench_id": "11436267003", "source": "osm"}, "geometry": {"type": "Point", "coordinates": [-73.996947, 40.7299096]}}, {"type": "Feature", "properties": {"bench_id": "11436267004", "source": "osm"}, "geometry": {"type": "Point", "coordinates": [-73.9969423, 40.7298967]}}, {"type": "Feature", "properties": {"bench_id": "11436267005", "source": "osm"}, "geometry": {"type": "Point", "coordinates": [-73.9969252, 40.729888]}}, {"type": "Feature", "properties": {"bench_id": "11436267006", "source": "osm"}, "geometry": {"type": "Point", "coordinates": [-73.9969081, 40.7298924]}}, {"type": "Feature", "properties": {"bench_id": "11436267007", "source": "osm"}, "geometry": {"type": "Point", "coordinates": [-73.9968981, 40.7299035]}}, {"type": "Feature", "properties": {"bench_id": "11436267008", "source": "osm"}, "geometry": {"type": "Point", "coordinates": [-73.9969001, 40.729919]}}, {"type": "Feature", "properties": {"bench_id": "11436267011", "source": "osm"}, "geometry": {"type": "Point", "coordinates": [-73.9968324, 40.7299357]}}, {"type": "Feature", "properties": {"bench_id": "11436267012", "source": "osm"}, "geometry": {"type": "Point", "coordinates": [-73.9967923, 40.7299374]}}, {"type": "Feature", "properties": {"bench_id": "11436267013", "source": "osm"}, "geometry": {"type": "Point", "coordinates": [-73.9967276, 40.729917]}}, {"type": "Feature", "properties": {"bench_id": "11436267014", "source": "osm"}, "geometry": {"type": "Point", "coordinates": [-73.9967203, 40.7298898]}}, {"type": "Feature", "properties": {"bench_id": "11436267015", "source": "osm"}, "geometry": {"type": "Point", "coordinates": [-73.9967034, 40.729869]}}, {"type": "Feature", "properties": {"bench_id": "11436267016", "source": "osm"}, "geometry": {"type": "Point", "coordinates": [-73.9966824, 40.7298538]}}, {"type": "Feature", "properties": {"bench_id": "11436596614", "source": "osm"}, "geometry": {"type": "Point", "coordinates": [-73.9968434, 40.7311572]}}, {"type": "Feature", "properties": {"bench_id": "11436596615", "source": "osm"}, "geometry": {"type": "Point", "coordinates": [-73.9968196, 40.7311354]}}, {"type": "Feature", "properties": {"bench_id": "11436596616", "source": "osm"}, "geometry": {"type": "Point", "coordinates": [-73.9967947, 40.7311136]}}, {"type": "Feature", "properties": {"bench_id": "11436596617", "source": "osm"}, "geometry": {"type": "Point", "coordinates": [-73.9967686, 40.7310938]}}, {"type": "Feature", "properties": {"bench_id": "11436609584", "source": "osm"}, "geometry": {"type": "Point", "coordinates": [-73.9968022, 40.7306408]}}, {"type": "Feature", "properties": {"bench_id": "11436609585", "source": "osm"}, "geometry": {"type": "Point", "coordinates": [-73.9967698, 40.7306283]}}, {"type": "Feature", "properties": {"bench_id": "11436609586", "source": "osm"}, "geometry": {"type": "Point", "coordinates": [-73.9967475, 40.7306128]}}, {"type": "Feature", "properties": {"bench_id": "11436609587", "source": "osm"}, "geometry": {"type": "Point", "coordinates": [-73.9967244, 40.7305936]}}, {"type": "Feature", "properties": {"bench_id": "11436609588", "source": "osm"}, "geometry": {"type": "Point", "coordinates": [-73.9968632, 40.7306496]}}, {"type": "Feature", "properties": {"bench_id": "11436609589", "source": "osm"}, "geometry": {"type": "Point", "coordinates": [-73.9968992, 40.7306462]}}, {"type": "Feature", "properties": {"bench_id": "11436609591", "source": "osm"}, "geometry": {"type": "Point", "coordinates": [-73.9967791, 40.7304247]}}, {"type": "Feature", "properties": {"bench_id": "11436609592", "source": "osm"}, "geometry": {"type": "Point", "coordinates": [-73.9967732, 40.7304042]}}, {"type": "Feature", "properties": {"bench_id": "11436609593", "source": "osm"}, "geometry": {"type": "Point", "coordinates": [-73.9967671, 40.7303786]}}, {"type": "Feature", "properties": {"bench_id": "11436609606", "source": "osm"}, "geometry": {"type": "Point", "coordinates": [-73.9967179, 40.7304857]}}, {"type": "Feature", "properties": {"bench_id": "11436609607", "source": "osm"}, "geometry": {"type": "Point", "coordinates": [-73.9966865, 40.7304706]}}, {"type": "Feature", "properties": {"bench_id": "11436609608", "source": "osm"}, "geometry": {"type": "Point", "coordinates": [-73.9966608, 40.7304584]}}, {"type": "Feature", "properties": {"bench_id": "11436609609", "source": "osm"}, "geometry": {"type": "Point", "coordinates": [-73.9966144, 40.7304379]}}, {"type": "Feature", "properties": {"bench_id": "11436609610", "source": "osm"}, "geometry": {"type": "Point", "coordinates": [-73.9965827, 40.7304222]}}, {"type": "Feature", "properties": {"bench_id": "11436609611", "source": "osm"}, "geometry": {"type": "Point", "coordinates": [-73.9965566, 40.7304084]}}, {"type": "Feature", "properties": {"bench_id": "11436609630", "source": "osm"}, "geometry": {"type": "Point", "coordinates": [-73.9966047, 40.7303786]}}, {"type": "Feature", "properties": {"bench_id": "11436609631", "source": "osm"}, "geometry": {"type": "Point", "coordinates": [-73.9966342, 40.7303933]}}, {"type": "Feature", "properties": {"bench_id": "11436609632", "source": "osm"}, "geometry": {"type": "Point", "coordinates": [-73.9966651, 40.7304075]}}, {"type": "Feature", "properties": {"bench_id": "11436609636", "source": "osm"}, "geometry": {"type": "Point", "coordinates": [-73.9970056, 40.7306774]}}, {"type": "Feature", "properties": {"bench_id": "11436609637", "source": "osm"}, "geometry": {"type": "Point", "coordinates": [-73.9970616, 40.7307022]}}, {"type": "Feature", "properties": {"bench_id": "11436609638", "source": "osm"}, "geometry": {"type": "Point", "coordinates": [-73.997035, 40.7306896]}}, {"type": "Feature", "properties": {"bench_id": "11436609639", "source": "osm"}, "geometry": {"type": "Point", "coordinates": [-73.9969781, 40.7306648]}}, {"type": "Feature", "properties": {"bench_id": "11436609640", "source": "osm"}, "geometry": {"type": "Point", "coordinates": [-73.9969506, 40.730652]}}, {"type": "Feature", "properties": {"bench_id": "11436609648", "source": "osm"}, "geometry": {"type": "Point", "coordinates": [-73.9966864, 40.7305851]}}, {"type": "Feature", "properties": {"bench_id": "11436609649", "source": "osm"}, "geometry": {"type": "Point", "coordinates": [-73.9966476, 40.730589]}}, {"type": "Feature", "properties": {"bench_id": "11436609650", "source": "osm"}, "geometry": {"type": "Point", "coordinates": [-73.9966162, 40.7305926]}}, {"type": "Feature", "properties": {"bench_id": "11436609653", "source": "osm"}, "geometry": {"type": "Point", "coordinates": [-73.9965047, 40.7306057]}}, {"type": "Feature", "properties": {"bench_id": "11436609654", "source": "osm"}, "geometry": {"type": "Point", "coordinates": [-73.9964633, 40.7306097]}}, {"type": "Feature", "properties": {"bench_id": "11436609655", "source": "osm"}, "geometry": {"type": "Point", "coordinates": [-73.9964239, 40.7306137]}}, {"type": "Feature", "properties": {"bench_id": "11436610697", "source": "osm"}, "geometry": {"type": "Point", "coordinates": [-73.9967639, 40.7310512]}}, {"type": "Feature", "properties": {"bench_id": "11436610698", "source": "osm"}, "geometry": {"type": "Point", "coordinates": [-73.9967361, 40.7310304]}}, {"type": "Feature", "properties": {"bench_id": "11436610699", "source": "osm"}, "geometry": {"type": "Point", "coordinates": [-73.9967086, 40.7310088]}}, {"type": "Feature", "properties": {"bench_id": "11436610710", "source": "osm"}, "geometry": {"type": "Point", "coordinates": [-73.9965785, 40.7310187]}}, {"type": "Feature", "properties": {"bench_id": "11436610711", "source": "osm"}, "geometry": {"type": "Point", "coordinates": [-73.996567, 40.7310374]}}, {"type": "Feature", "properties": {"bench_id": "11436610712", "source": "osm"}, "geometry": {"type": "Point", "coordinates": [-73.9965401, 40.7310445]}}, {"type": "Feature", "properties": {"bench_id": "11436610713", "source": "osm"}, "geometry": {"type": "Point", "coordinates": [-73.9965105, 40.7310374]}}, {"type": "Feature", "properties": {"bench_id": "11436610714", "source": "osm"}, "geometry": {"type": "Point", "coordinates": [-73.9964848, 40.7310257]}}, {"type": "Feature", "properties": {"bench_id": "11436610715", "source": "osm"}, "geometry": {"type": "Point", "coordinates": [-73.9964676, 40.7310073]}}, {"type": "Feature", "properties": {"bench_id": "11436610716", "source": "osm"}, "geometry": {"type": "Point", "coordinates": [-73.9964619, 40.7309899]}}, {"type": "Feature", "properties": {"bench_id": "11436610717", "source": "osm"}, "geometry": {"type": "Point", "coordinates": [-73.9964764, 40.7309748]}}, {"type": "Feature", "properties": {"bench_id": "11436610777", "source": "osm"}, "geometry": {"type": "Point", "coordinates": [-73.9964107, 40.7308881]}}, {"type": "Feature", "properties": {"bench_id": "11436610778", "source": "osm"}, "geometry": {"type": "Point", "coordinates": [-73.9964442, 40.7309012]}}, {"type": "Feature", "properties": {"bench_id": "11436610779", "source": "osm"}, "geometry": {"type": "Point", "coordinates": [-73.9964791, 40.7309164]}}, {"type": "Feature", "properties": {"bench_id": "11436610802", "source": "osm"}, "geometry": {"type": "Point", "coordinates": [-73.996128, 40.7307616]}}, {"type": "Feature", "properties": {"bench_id": "11436610803", "source": "osm"}, "geometry": {"type": "Point", "coordinates": [-73.9961559, 40.7307798]}}, {"type": "Feature", "properties": {"bench_id": "11436610804", "source": "osm"}, "geometry": {"type": "Point", "coordinates": [-73.9961872, 40.7307988]}}, {"type": "Feature", "properties": {"bench_id": "11436610805", "source": "osm"}, "geometry": {"type": "Point", "coordinates": [-73.9960671, 40.7307289]}}, {"type": "Feature", "properties": {"bench_id": "11436610806", "source": "osm"}, "geometry": {"type": "Point", "coordinates": [-73.9960347, 40.7307159]}}, {"type": "Feature", "properties": {"bench_id": "11436610807", "source": "osm"}, "geometry": {"type": "Point", "coordinates": [-73.9959962, 40.7307043]}}, {"type": "Feature", "properties": {"bench_id": "11436610952", "source": "osm"}, "geometry": {"type": "Point", "coordinates": [-73.9963738, 40.7308447]}}, {"type": "Feature", "properties": {"bench_id": "11436610953", "source": "osm"}, "geometry": {"type": "Point", "coordinates": [-73.9963396, 40.7308332]}}, {"type": "Feature", "properties": {"bench_id": "11436610954", "source": "osm"}, "geometry": {"type": "Point", "coordinates": [-73.9963071, 40.7308224]}}, {"type": "Feature", "properties": {"bench_id": "11436610955", "source": "osm"}, "geometry": {"type": "Point", "coordinates": [-73.9962774, 40.7306338]}}, {"type": "Feature", "properties": {"bench_id": "11436610956", "source": "osm"}, "geometry": {"type": "Point", "coordinates": [-73.9962435, 40.7306381]}}, {"type": "Feature", "properties": {"bench_id": "11436610957", "source": "osm"}, "geometry": {"type": "Point", "coordinates": [-73.9962086, 40.7306424]}}, {"type": "Feature", "properties": {"bench_id": "11436610985", "source": "osm"}, "geometry": {"type": "Point", "coordinates": [-73.996217, 40.7303626]}}, {"type": "Feature", "properties": {"bench_id": "11436610986", "source": "osm"}, "geometry": {"type": "Point", "coordinates": [-73.9961947, 40.7303901]}}, {"type": "Feature", "properties": {"bench_id": "11436610987", "source": "osm"}, "geometry": {"type": "Point", "coordinates": [-73.9961766, 40.7304186]}}, {"type": "Feature", "properties": {"bench_id": "11436611007", "source": "osm"}, "geometry": {"type": "Point", "coordinates": [-73.9964094, 40.7303348]}}, {"type": "Feature", "properties": {"bench_id": "11436611008", "source": "osm"}, "geometry": {"type": "Point", "coordinates": [-73.9963866, 40.7303238]}}, {"type": "Feature", "properties": {"bench_id": "11436611009", "source": "osm"}, "geometry": {"type": "Point", "coordinates": [-73.9963606, 40.7303111]}}, {"type": "Feature", "properties": {"bench_id": "11436611010", "source": "osm"}, "geometry": {"type": "Point", "coordinates": [-73.9964702, 40.7303919]}}, {"type": "Feature", "properties": {"bench_id": "11436611011", "source": "osm"}, "geometry": {"type": "Point", "coordinates": [-73.9965023, 40.7304015]}}, {"type": "Feature", "properties": {"bench_id": "11436611012", "source": "osm"}, "geometry": {"type": "Point", "coordinates": [-73.9965305, 40.7304049]}}, {"type": "Feature", "properties": {"bench_id": "11436611013", "source": "osm"}, "geometry": {"type": "Point", "coordinates": [-73.9964486, 40.7303788]}}, {"type": "Feature", "properties": {"bench_id": "11436611014", "source": "osm"}, "geometry": {"type": "Point", "coordinates": [-73.9964337, 40.7303605]}}, {"type": "Feature", "properties": {"bench_id": "11436611019", "source": "osm"}, "geometry": {"type": "Point", "coordinates": [-73.9963004, 40.7306005]}}, {"type": "Feature", "properties": {"bench_id": "11436611020", "source": "osm"}, "geometry": {"type": "Point", "coordinates": [-73.996335, 40.7305965]}}, {"type": "Feature", "properties": {"bench_id": "11436611021", "source": "osm"}, "geometry": {"type": "Point", "coordinates": [-73.99637, 40.7305917]}}, {"type": "Feature", "properties": {"bench_id": "11436611023", "source": "osm"}, "geometry": {"type": "Point", "coordinates": [-73.9965641, 40.7305653]}}, {"type": "Feature", "properties": {"bench_id": "11436611024", "source": "osm"}, "geometry": {"type": "Point", "coordinates": [-73.9965291, 40.7305701]}}, {"type": "Feature", "properties": {"bench_id": "11436611025", "source": "osm"}, "geometry": {"type": "Point", "coordinates": [-73.9964944, 40.7305741]}}, {"type": "Feature", "properties": {"bench_id": "11436611069", "source": "osm"}, "geometry": {"type": "Point", "coordinates": [-73.9965805, 40.7303549]}}, {"type": "Feature", "properties": {"bench_id": "11436611070", "source": "osm"}, "geometry": {"type": "Point", "coordinates": [-73.9965628, 40.7303326]}}, {"type": "Feature", "properties": {"bench_id": "11436611071", "source": "osm"}, "geometry": {"type": "Point", "coordinates": [-73.9965373, 40.730316]}}, {"type": "Feature", "properties": {"bench_id": "11436611072", "source": "osm"}, "geometry": {"type": "Point", "coordinates": [-73.9965023, 40.7303048]}}, {"type": "Feature", "properties": {"bench_id": "11436611073", "source": "osm"}, "geometry": {"type": "Point", "coordinates": [-73.9964669, 40.7303003]}}, {"type": "Feature", "properties": {"bench_id": "11436611074", "source": "osm"}, "geometry": {"type": "Point", "coordinates": [-73.9964406, 40.7302983]}}, {"type": "Feature", "properties": {"bench_id": "11436611075", "source": "osm"}, "geometry": {"type": "Point", "coordinates": [-73.9964095, 40.7302865]}}, {"type": "Feature", "properties": {"bench_id": "11436611076", "source": "osm"}, "geometry": {"type": "Point", "coordinates": [-73.9963806, 40.7302708]}}, {"type": "Feature", "properties": {"bench_id": "11436611078", "source": "osm"}, "geometry": {"type": "Point", "coordinates": [-73.9967382, 40.7302845]}}, {"type": "Feature", "properties": {"bench_id": "11436611079", "source": "osm"}, "geometry": {"type": "Point", "coordinates": [-73.9967325, 40.730261]}}, {"type": "Feature", "properties": {"bench_id": "11436611080", "source": "osm"}, "geometry": {"type": "Point", "coordinates": [-73.9967233, 40.7302289]}}, {"type": "Feature", "properties": {"bench_id": "11436611081", "source": "osm"}, "geometry": {"type": "Point", "coordinates": [-73.996717, 40.730205]}}, {"type": "Feature", "properties": {"bench_id": "11436611082", "source": "osm"}, "geometry": {"type": "Point", "coordinates": [-73.9966741, 40.7300549]}}, {"type": "Feature", "properties": {"bench_id": "11436611083", "source": "osm"}, "geometry": {"type": "Point", "coordinates": [-73.9966666, 40.7300314]}}, {"type": "Feature", "properties": {"bench_id": "11436611085", "source": "osm"}, "geometry": {"type": "Point", "coordinates": [-73.9965989, 40.7299371]}}, {"type": "Feature", "properties": {"bench_id": "11436611086", "source": "osm"}, "geometry": {"type": "Point", "coordinates": [-73.996598, 40.7299114]}}, {"type": "Feature", "properties": {"bench_id": "11436611087", "source": "osm"}, "geometry": {"type": "Point", "coordinates": [-73.9966009, 40.7298869]}}, {"type": "Feature", "properties": {"bench_id": "11436611088", "source": "osm"}, "geometry": {"type": "Point", "coordinates": [-73.9966078, 40.7298608]}}, {"type": "Feature", "properties": {"bench_id": "11436611089", "source": "osm"}, "geometry": {"type": "Point", "coordinates": [-73.9965744, 40.7299773]}}, {"type": "Feature", "properties": {"bench_id": "11436611090", "source": "osm"}, "geometry": {"type": "Point", "coordinates": [-73.99654, 40.7299914]}}, {"type": "Feature", "properties": {"bench_id": "11436611091", "source": "osm"}, "geometry": {"type": "Point", "coordinates": [-73.996513, 40.7300048]}}, {"type": "Feature", "properties": {"bench_id": "11436611095", "source": "osm"}, "geometry": {"type": "Point", "coordinates": [-73.9964718, 40.7300673]}}, {"type": "Feature", "properties": {"bench_id": "11436611096", "source": "osm"}, "geometry": {"type": "Point", "coordinates": [-73.9964477, 40.7300833]}}, {"type": "Feature", "properties": {"bench_id": "11436611097", "source": "osm"}, "geometry": {"type": "Point", "coordinates": [-73.9964276, 40.7301001]}}, {"type": "Feature", "properties": {"bench_id": "11436611103", "source": "osm"}, "geometry": {"type": "Point", "coordinates": [-73.9963578, 40.7301195]}}, {"type": "Feature", "properties": {"bench_id": "11436611104", "source": "osm"}, "geometry": {"type": "Point", "coordinates": [-73.9963366, 40.7301448]}}, {"type": "Feature", "properties": {"bench_id": "11436611105", "source": "osm"}, "geometry": {"type": "Point", "coordinates": [-73.9963174, 40.7301676]}}, {"type": "Feature", "properties": {"bench_id": "11436611106", "source": "osm"}, "geometry": {"type": "Point", "coordinates": [-73.9963376, 40.7300889]}}, {"type": "Feature", "properties": {"bench_id": "11436611107", "source": "osm"}, "geometry": {"type": "Point", "coordinates": [-73.99631, 40.730087]}}, {"type": "Feature", "properties": {"bench_id": "11436611108", "source": "osm"}, "geometry": {"type": "Point", "coordinates": [-73.9963032, 40.7300732]}}, {"type": "Feature", "properties": {"bench_id": "11436611109", "source": "osm"}, "geometry": {"type": "Point", "coordinates": [-73.9963115, 40.7300538]}}, {"type": "Feature", "properties": {"bench_id": "11436611110", "source": "osm"}, "geometry": {"type": "Point", "coordinates": [-73.9963283, 40.7300396]}}, {"type": "Feature", "properties": {"bench_id": "11436611111", "source": "osm"}, "geometry": {"type": "Point", "coordinates": [-73.9963499, 40.730027]}}, {"type": "Feature", "properties": {"bench_id": "11436611112", "source": "osm"}, "geometry": {"type": "Point", "coordinates": [-73.9963716, 40.7300195]}}, {"type": "Feature", "properties": {"bench_id": "11436611113", "source": "osm"}, "geometry": {"type": "Point", "coordinates": [-73.9963942, 40.7300273]}}, {"type": "Feature", "properties": {"bench_id": "11436611320", "source": "osm"}, "geometry": {"type": "Point", "coordinates": [-73.9961615, 40.730361]}}, {"type": "Feature", "properties": {"bench_id": "11436611321", "source": "osm"}, "geometry": {"type": "Point", "coordinates": [-73.9961759, 40.7303404]}}, {"type": "Feature", "properties": {"bench_id": "11436611322", "source": "osm"}, "geometry": {"type": "Point", "coordinates": [-73.9961924, 40.7303154]}}, {"type": "Feature", "properties": {"bench_id": "11436611348", "source": "osm"}, "geometry": {"type": "Point", "coordinates": [-73.9960943, 40.7304883]}}, {"type": "Feature", "properties": {"bench_id": "11436611349", "source": "osm"}, "geometry": {"type": "Point", "coordinates": [-73.9960774, 40.7305123]}}, {"type": "Feature", "properties": {"bench_id": "11436611350", "source": "osm"}, "geometry": {"type": "Point", "coordinates": [-73.996025, 40.7305742]}}, {"type": "Feature", "properties": {"bench_id": "11436611351", "source": "osm"}, "geometry": {"type": "Point", "coordinates": [-73.9959997, 40.7305926]}}, {"type": "Feature", "properties": {"bench_id": "11436611352", "source": "osm"}, "geometry": {"type": "Point", "coordinates": [-73.9959636, 40.7306192]}}, {"type": "Feature", "properties": {"bench_id": "11436611353", "source": "osm"}, "geometry": {"type": "Point", "coordinates": [-73.9959374, 40.7306319]}}, {"type": "Feature", "properties": {"bench_id": "11436611357", "source": "osm"}, "geometry": {"type": "Point", "coordinates": [-73.9961019, 40.7303968]}}, {"type": "Feature", "properties": {"bench_id": "11436611358", "source": "osm"}, "geometry": {"type": "Point", "coordinates": [-73.9960796, 40.7303994]}}, {"type": "Feature", "properties": {"bench_id": "11436611359", "source": "osm"}, "geometry": {"type": "Point", "coordinates": [-73.9960628, 40.7303897]}}, {"type": "Feature", "properties": {"bench_id": "11436611360", "source": "osm"}, "geometry": {"type": "Point", "coordinates": [-73.9960613, 40.7303691]}}, {"type": "Feature", "properties": {"bench_id": "11436611361", "source": "osm"}, "geometry": {"type": "Point", "coordinates": [-73.9960707, 40.7303518]}}, {"type": "Feature", "properties": {"bench_id": "11436611362", "source": "osm"}, "geometry": {"type": "Point", "coordinates": [-73.9960856, 40.730335]}}, {"type": "Feature", "properties": {"bench_id": "11436611363", "source": "osm"}, "geometry": {"type": "Point", "coordinates": [-73.9961054, 40.7303233]}}, {"type": "Feature", "properties": {"bench_id": "11436611364", "source": "osm"}, "geometry": {"type": "Point", "coordinates": [-73.9961261, 40.730329]}}, {"type": "Feature", "properties": {"bench_id": "11436611365", "source": "osm"}, "geometry": {"type": "Point", "coordinates": [-73.99614, 40.7303417]}}]}